GLOBALSTAR M001         
1 25162U 98008A   25344.80578700 -.00000093  00000+0  26751-4 0  9991
2 25162  52.0002 179.1560 0000239 281.3101  91.9517 12.38223241265593
GLOBALSTAR M004         
1 25163U 98008B   25344.72719939 -.00000030  00000+0  40996-3 0  9991
2 25163  51.9998 235.5662 0003076 339.9600  54.5528 12.63410970284001
GLOBALSTAR M002         
1 25164U 98008C   25344.75472478 -.00000064  00000+0  24278-3 0  9991
2 25164  51.9975 157.4884 0002675 102.0485 258.0635 11.61514716204584
GLOBALSTAR M003         
1 25165U 98008D   25344.62216791 -.00000186  00000+0 -10297-2 0  9993
2 25165  51.9929  39.8498 0007632 288.0099 242.9044 12.12043279254615
GLOBALSTAR M014         
1 25306U 98023A   25344.73723648 -.00000090  00000+0 -22818-3 0  9990
2 25306  51.9851  77.0422 0000275   3.0048 166.5552 11.65483773211759
GLOBALSTAR M006         
1 25307U 98023B   25344.44379444 -.00000074  00000+0  27052-4 0  9997
2 25307  51.9910 136.8455 0004189  78.0177 315.2023 11.58178733237257
GLOBALSTAR M015         
1 25308U 98023C   25344.74598625 -.00000058  00000+0  36402-3 0  9995
2 25308  51.9818 242.6599 0013402  32.4104 340.3205 11.48862748214376
GLOBALSTAR M008         
1 25309U 98023D   25344.50489884 -.00000090  00000+0  49715-4 0  9994
2 25309  51.9989  46.8592 0002982 178.5933 195.2918 12.36076528259655
